API VERSION: 1.2
API SOURCE: NASA/JPL Horizons API



*******************************************************************************
Ephemeris / API_USER Thu Apr  2 07:52:18 2026 Pasadena, USA      / Horizons
*******************************************************************************
Target body name: Jupiter (599)                   {source: jup365_merged}
Center body name: Earth (399)                     {source: DE441}
Center-site name: BODY CENTER
*******************************************************************************
Start time      : A.D. 2022-Sep-23 03:22:00.0192 TDB
Stop  time      : A.D. 2022-Sep-25 03:22:00.0192 TDB
Step-size       : 60 minutes
*******************************************************************************
Center geodetic : 0.0, 0.0, 0.0                   {E-lon(deg),Lat(deg),Alt(km)}
Center cylindric: 0.0, 0.0, 0.0                   {E-lon(deg),Dxy(km),Dz(km)}
Center radii    : 6378.137, 6378.137, 6356.752 km {Equator_a, b, pole_c}
Output units    : AU-D
Calendar mode   : Mixed Julian/Gregorian
Output type     : GEOMETRIC cartesian states
Output format   : 3 (position, velocity, LT, range, range-rate)
EOP file        : eop.260401.p260628
EOP coverage    : DATA-BASED 1962-JAN-20 TO 2026-APR-01. PREDICTS-> 2026-JUN-27
Reference frame : ICRF
*******************************************************************************
            JDTDB,            Calendar Date (TDB),                      X,                      Y,                      Z,                     VX,                     VY,                     VZ,                     LT,                     RG,                     RR,
**************************************************************************************************************************************************************************************************************************************************************************
$$SOE
2459845.640278000, A.D. 2022-Sep-23 03:22:00.0192,  3.943307006751865E+00,  2.891465833429927E-01,  3.546287006132289E-03, -2.785515382379693E-04, -8.476317867091894E-03, -3.698015062428901E-03,  2.283579509901725E-02,  3.953895354243560E+00, -9.009916769838230E-04,
2459845.681944667, A.D. 2022-Sep-23 04:22:00.0192,  3.943295647911939E+00,  2.887934008189009E-01,  3.392202047841173E-03, -2.666723039507157E-04, -8.476440163793328E-03, -3.698061499012970E-03,  2.283557981031437E-02,  3.953858078160181E+00, -8.882595732296831E-04,
2459845.723611333, A.D. 2022-Sep-23 05:22:00.0192,  3.943284784087970E+00,  2.884402135912127E-01,  3.238115334736951E-03, -2.547910472281336E-04, -8.476543613176941E-03, -3.698099285472099E-03,  2.283536758602630E-02,  3.953821332663778E+00, -8.755237757873068E-04,
2459845.765278000, A.D. 2022-Sep-23 06:22:00.0192,  3.943274415329761E+00,  2.880870224470253E-01,  3.084027227511184E-03, -2.429094236291864E-04, -8.476628165902928E-03, -3.698128426356161E-03,  2.283515842684310E-02,  3.953785117873833E+00, -8.627859408649844E-04,
2459845.806944667, A.D. 2022-Sep-23 07:22:00.0192,  3.943264541618236E+00,  2.877338281709039E-01,  2.929938084482566E-03, -2.310290775497709E-04, -8.476693992680443E-03, -3.698149030837819E-03,  2.283495233305493E-02,  3.953749433840583E+00, -8.500477296951249E-04,
2459845.848611333, A.D. 2022-Sep-23 08:22:00.0192,  3.943255162866683E+00,  2.873806315357705E-01,  2.775848257277784E-03, -2.191516048920399E-04, -8.476741480652007E-03, -3.698161310351724E-03,  2.283474930455533E-02,  3.953714280545598E+00, -8.373107708956471E-04,
2459845.890278000, A.D. 2022-Sep-23 09:22:00.0192,  3.943246278923541E+00,  2.870274332940541E-01,  2.621758086664348E-03, -2.072785168367259E-04, -8.476771224368816E-03, -3.698165573676684E-03,  2.283454934085359E-02,  3.953679657903911E+00, -8.245766235385100E-04,
2459845.931944667, A.D. 2022-Sep-23 10:22:00.0192,  3.943237889576642E+00,  2.866742341693270E-01,  2.467667898639198E-03, -1.954112057114501E-04, -8.476784011634675E-03, -3.698162219610715E-03,  2.283435244109570E-02,  3.953645565767659E+00, -8.118467419406837E-04,
2459845.973611333, A.D. 2022-Sep-23 11:22:00.0192,  3.943229994558827E+00,  2.863210348486305E-01,  2.313578000868960E-03, -1.835509138789924E-04, -8.476780804642918E-03, -3.698151727457128E-03,  2.283415860409362E-02,  3.953612003931134E+00, -7.991224431344696E-04,
2459846.015278000, A.D. 2022-Sep-23 12:22:00.0192,  3.943222593554776E+00,  2.859678359756744E-01,  2.159488679567494E-03, -1.716987064729051E-04, -8.476762716956030E-03, -3.698134645597480E-03,  2.283396782836178E-02,  3.953578972137123E+00, -7.864048778864593E-04,
2459846.056944667, A.D. 2022-Sep-23 13:22:00.0192,  3.943215686208886E+00,  2.856146381450714E-01,  2.005400196883899E-03, -1.598554486866378E-04, -8.476730986981729E-03, -3.698111578474172E-03,  2.283378011216025E-02,  3.953546470084360E+00, -7.736950060205851E-04,
2459846.098611333, A.D. 2022-Sep-23 14:22:00.0192,  3.943209272133983E+00,  2.852614418977380E-01,  1.851312788859936E-03, -1.480217881798367E-04, -8.476686948681627E-03, -3.698083172342047E-03,  2.283359545354310E-02,  3.953514497435925E+00, -7.609935766639306E-04,
2459846.140278000, A.D. 2022-Sep-23 15:22:00.0192,  3.943203350920659E+00,  2.849082477175582E-01,  1.697226663999953E-03, -1.361981430055624E-04, -8.476632000311369E-03, -3.698050100175264E-03,  2.283341385041101E-02,  3.953483053828326E+00, -7.483011138783260E-04,
2459846.181944667, A.D. 2022-Sep-23 16:22:00.0192,  3.943197922146991E+00,  2.845550560293770E-01,  1.543142002480436E-03, -1.243846952893223E-04, -8.476567572033650E-03, -3.698013046133113E-03,  2.283323530056653E-02,  3.953452138881091E+00, -7.356179079706467E-04,
2459846.223611333, A.D. 2022-Sep-23 17:22:00.0192,  3.943192985388401E+00,  2.842018671983524E-01,  1.389058956008850E-03, -1.125813907102842E-04, -8.476495093268392E-03, -3.697972689996588E-03,  2.283305980177084E-02,  3.953421752206575E+00, -7.229440125955442E-04,
2459846.265278000, A.D. 2022-Sep-23 18:22:00.0192,  3.943188540227420E+00,  2.838486815306566E-01,  1.234977648324312E-03, -1.007879436529937E-04, -8.476415960645254E-03, -3.697929691985252E-03,  2.283288735180042E-02,  3.953391893419793E+00, -7.102792475819567E-04,
2459846.306944667, A.D. 2022-Sep-23 19:22:00.0192,  3.943184586263124E+00,  2.834954992754868E-01,  1.080898176316229E-03, -8.900384772131273E-05, -8.476331507400250E-03, -3.697884678350535E-03,  2.283271794850251E-02,  3.953362562148002E+00, -6.976232072361016E-04,
2459846.348611333, A.D. 2022-Sep-23 20:22:00.0192,  3.943181123120032E+00,  2.831423206283070E-01,  9.268206117204736E-04, -7.722839114288967E-05, -8.476242975006033E-03, -3.697838228114520E-03,  2.283255158984779E-02,  3.953333758039838E+00, -6.849752737060714E-04,
2459846.390278000, A.D. 2022-Sep-23 21:22:00.0192,  3.943178150456261E+00,  2.827891457352116E-01,  7.727450033384648E-04, -6.546067645065970E-05, -8.476151487740089E-03, -3.697790861280827E-03,  2.283238827397941E-02,  3.953305480773798E+00, -6.723346348448094E-04,
2459846.431944667, A.D. 2022-Sep-23 22:22:00.0192,  3.943175667970793E+00,  2.824359746982794E-01,  6.186713797120949E-04, -5.369964371618118E-05, -8.476058030772251E-03, -3.697743028784068E-03,  2.283222799925720E-02,  3.953277730065894E+00, -6.597003058873512E-04,
2459846.473611333, A.D. 2022-Sep-23 23:22:00.0192,  3.943173675409713E+00,  2.820828075817570E-01,  4.645997521778078E-04, -4.194409653639055E-05, -8.475963432190019E-03, -3.697695104365461E-03,  2.283207076429630E-02,  3.953250505676345E+00, -6.470711541729324E-04,
2459846.515278000, A.D. 2022-Sep-24 00:22:00.0192,  3.943172172571315E+00,  2.817296444189079E-01,  3.105301182172057E-04, -3.019272994790053E-05, -8.475868349179542E-03, -3.697647378465331E-03,  2.283191656799950E-02,  3.953223807415176E+00, -6.344459261004606E-04,
2459846.556944667, A.D. 2022-Sep-24 01:22:00.0192,  3.943171159310026E+00,  2.813764852193475E-01,  1.564624650203803E-04, -1.844415946669893E-05, -8.475773258348794E-03, -3.697600054112514E-03,  2.283176540958300E-02,  3.953197635146676E+00, -6.218232755127715E-04,
2459846.598611333, A.D. 2022-Sep-24 02:22:00.0192,  3.943170635539106E+00,  2.810233299767021E-01,  2.396773181022918E-06, -6.696950528324212E-06, -8.475678449937192E-03, -3.697553244674600E-03,  2.283161728859518E-02,  3.953171988792648E+00, -6.092017927649138E-04,
2459846.640278000, A.D. 2022-Sep-24 03:22:00.0192,  3.943170601232122E+00,  2.806701786764334E-01, -1.516669795494709E-04,  5.050352267876883E-06, -8.475584025433790E-03, -3.697506973227669E-03,  2.283147220492834E-02,  3.953146868334445E+00, -5.965800338443314E-04,
2459846.681944667, A.D. 2022-Sep-24 04:22:00.0192,  3.943171056423221E+00,  2.803170313037042E-01, -3.057288145100011E-04,  1.679919653542027E-05, -8.475489897977022E-03, -3.697461173234329E-03,  2.283133015882354E-02,  3.953122273813808E+00, -5.839565490716611E-04,
2459846.723611333, A.D. 2022-Sep-24 05:22:00.0192,  3.943172001206218E+00,  2.799638878511791E-01, -4.597887484277810E-04,  2.855099432587520E-05, -8.475395794908722E-03, -3.697415690221743E-03,  2.283119115086858E-02,  3.953098205332507E+00, -5.713299111083421E-04,
2459846.765278000, A.D. 2022-Sep-24 06:22:00.0192,  3.943173435732555E+00,  2.796107483266824E-01, -6.138467898036049E-04,  4.030709523410387E-05, -8.475301262113082E-03, -3.697370284279617E-03,  2.283105518198929E-02,  3.953074663050847E+00, -5.586987422116206E-04,
2459846.806944667, A.D. 2022-Sep-24 07:22:00.0192,  3.943175360208153E+00,  2.792576127606330E-01, -7.679029354199533E-04,  5.206876026141162E-05, -8.475205670435184E-03, -3.697324633523522E-03,  2.283092225343442E-02,  3.953051647185043E+00, -5.460617408779831E-04,
2459846.848611333, A.D. 2022-Sep-24 08:22:00.0192,  3.943177774889182E+00,  2.789044812131466E-01, -9.219571670252151E-04,  6.383713626071162E-05, -8.475108225741835E-03, -3.697278339287221E-03,  2.283079236675411E-02,  3.953029158003491E+00, -5.334177081586639E-04,
